start=new Date('2022-10-23T00:00:00.000Z').valueOf();
sats=[{"APOAPSIS":"548.200","CENTER_NAME":"EARTH","OBJECT_NAME":"STARLINK-1964","PERIAPSIS":"546.261","MEAN_ANOMALY":"255.8330","MEAN_MOTION":"15.06394617","NORAD_CAT_ID":"47565","FILE":"3629797","REF_FRAME":"TEME","EPOCH":"2022-10-22T21:45:08.250336","REV_AT_EPOCH":"9497","RCS_SIZE":"LARGE","COUNTRY_CODE":"US","GP_ID":"215925422","SITE":"AFETR","DECAY_DATE":null,"OBJECT_TYPE":"PAYLOAD","TIME_SYSTEM":"UTC","RA_OF_ASC_NODE":"150.2910","ECCENTRICITY":"0.00014000","CLASSIFICATION_TYPE":"U","TLE_LINE2":"2 47565  53.0539 150.2910 0001400 104.2815 255.8330 15.06394617 94975","BSTAR":"0.00006582100000","SEMIMAJOR_AXIS":"6925.365","TLE_LINE1":"1 47565U 21009T   22295.90634549  .00000699  00000-0  65821-4 0  9999","ELEMENT_SET_NO":"999","PERIOD":"95.592","EPHEMERIS_TYPE":"0","INCLINATION":"53.0539","ARG_OF_PERICENTER":"104.2815","LAUNCH_DATE":"2021-02-04","MEAN_ELEMENT_THEORY":"SGP4","MEAN_MOTION_DOT":"0.00000699","OBJECT_ID":"2021-009T","MEAN_MOTION_DDOT":"0.0000000000000"},{"CENTER_NAME":"EARTH","APOAPSIS":"547.899","MEAN_ANOMALY":"274.2446","MEAN_MOTION":"15.06396833","OBJECT_NAME":"STARLINK-1965","PERIAPSIS":"546.547","FILE":"3629797","NORAD_CAT_ID":"47566","REF_FRAME":"TEME","EPOCH":"2022-10-22T20:00:18.666432","REV_AT_EPOCH":"9510","RCS_SIZE":"LARGE","COUNTRY_CODE":"US","GP_ID":"215924170","SITE":"AFETR","DECAY_DATE":null,"OBJECT_TYPE":"PAYLOAD","RA_OF_ASC_NODE":"140.6238","TIME_SYSTEM":"UTC","CLASSIFICATION_TYPE":"U","ECCENTRICITY":"0.00009760","BSTAR":"-0.00001073300000","TLE_LINE2":"2 47566  53.0532 140.6238 0000976  85.8654 274.2446 15.06396833 95108","SEMIMAJOR_AXIS":"6925.358","TLE_LINE1":"1 47566U 21009U   22295.83354938 -.00000441  00000-0 -10733-4 0  9992","ELEMENT_SET_NO":"999","PERIOD":"95.592","EPHEMERIS_TYPE":"0","INCLINATION":"53.0532","LAUNCH_DATE":"2021-02-04","ARG_OF_PERICENTER":"85.8654","MEAN_ELEMENT_THEORY":"SGP4","MEAN_MOTION_DOT":"-0.00000441","OBJECT_ID":"2021-009U","MEAN_MOTION_DDOT":"0.0000000000000"},{"INCLINATION":"53.0540","LAUNCH_DATE":"2021-02-04","ARG_OF_PERICENTER":"117.1714","PERIOD":"95.592","EPHEMERIS_TYPE":"0","SEMIMAJOR_AXIS":"6925.330","TLE_LINE1":"1 47567U 21009V   22295.87039832  .00002247  00000-0  16967-3 0  9998","ELEMENT_SET_NO":"999","MEAN_MOTION_DDOT":"0.0000000000000","OBJECT_ID":"2021-009V","MEAN_MOTION_DOT":"0.00002247","MEAN_ELEMENT_THEORY":"SGP4","REF_FRAME":"TEME","MEAN_ANOMALY":"242.9410","MEAN_MOTION":"15.06405956","OBJECT_NAME":"STARLINK-1966","PERIAPSIS":"546.276","FILE":"3629797","NORAD_CAT_ID":"47567","APOAPSIS":"548.114","CENTER_NAME":"EARTH","BSTAR":"0.00016967000000","TLE_LINE2":"2 47567  53.0540 180.4548 0001327 117.1714 242.9410 15.06405956 94548","TIME_SYSTEM":"UTC","RA_OF_ASC_NODE":"180.4548","CLASSIFICATION_TYPE":"U","ECCENTRICITY":"0.00013270","COUNTRY_CODE":"US","GP_ID":"215924921","DECAY_DATE":null,"OBJECT_TYPE":"PAYLOAD","SITE":"AFETR","EPOCH":"2022-10-22T20:53:22.414848","REV_AT_EPOCH":"9454","RCS_SIZE":"LARGE"},{"SEMIMAJOR_AXIS":"6925.363","ELEMENT_SET_NO":"999","TLE_LINE1":"1 47568U 21009W   22295.82986265 -.00000652  00000-0 -24899-4 0  9999","PERIOD":"95.592","EPHEMERIS_TYPE":"0","INCLINATION":"53.0551","ARG_OF_PERICENTER":"87.9308","LAUNCH_DATE":"2021-02-04","MEAN_ELEMENT_THEORY":"SGP4","MEAN_MOTION_DOT":"-0.00000652","OBJECT_ID":"2021-009W","MEAN_MOTION_DDOT":"0.0000000000000","APOAPSIS":"548.190","CENTER_NAME":"EARTH","PERIAPSIS":"546.266","OBJECT_NAME":"STARLINK-1967","MEAN_ANOMALY":"272.1840","MEAN_MOTION":"15.06395319","NORAD_CAT_ID":"47568","FILE":"3629797","REF_FRAME":"TEME","EPOCH":"2022-10-22T19:55:00.132960","REV_AT_EPOCH":"9454","RCS_SIZE":"LARGE","GP_ID":"215925172","COUNTRY_CODE":"US","SITE":"AFETR","DECAY_DATE":null,"OBJECT_TYPE":"PAYLOAD","RA_OF_ASC_NODE":"180.6428","TIME_SYSTEM":"UTC","ECCENTRICITY":"0.00013890","CLASSIFICATION_TYPE":"U","TLE_LINE2":"2 47568  53.0551 180.6428 0001389  87.9308 272.1840 15.06395319 94544","BSTAR":"-0.00002489900000"},{"MEAN_MOTION_DDOT":"0.0000000000000","OBJECT_ID":"2021-009X","MEAN_MOTION_DOT":"0.00136111","MEAN_ELEMENT_THEORY":"SGP4","INCLINATION":"53.0554","LAUNCH_DATE":"2021-02-04","ARG_OF_PERICENTER":"325.6221","PERIOD":"91.446","EPHEMERIS_TYPE":"0","SEMIMAJOR_AXIS":"6723.646","TLE_LINE1":"1 47569U 21009X   22295.55767884  .00136111  00000-0  89805-3 0  9999","ELEMENT_SET_NO":"999","BSTAR":"0.00089805000000","TLE_LINE2":"2 47569  53.0554  41.0740 0006243 325.6221  34.4393 15.74691711 96493","TIME_SYSTEM":"UTC","RA_OF_ASC_NODE":"41.0740","CLASSIFICATION_TYPE":"U","ECCENTRICITY":"0.00062430","GP_ID":"215891223","COUNTRY_CODE":"US","SITE":"AFETR","DECAY_DATE":null,"OBJECT_TYPE":"PAYLOAD","EPOCH":"2022-10-22T13:23:03.451776","REV_AT_EPOCH":"9649","RCS_SIZE":"LARGE","REF_FRAME":"TEME","MEAN_ANOMALY":"34.4393","MEAN_MOTION":"15.74691711","PERIAPSIS":"341.313","OBJECT_NAME":"STARLINK-1968","FILE":"3629476","NORAD_CAT_ID":"47569","CENTER_NAME":"EARTH","APOAPSIS":"349.708"},{"SEMIMAJOR_AXIS":"6925.364","TLE_LINE1":"1 47570U 21009Y   22295.82248969  .00001147  00000-0  95890-4 0  9991","ELEMENT_SET_NO":"999","PERIOD":"95.592","EPHEMERIS_TYPE":"0","INCLINATION":"53.0542","ARG_OF_PERICENTER":"116.7956","LAUNCH_DATE":"2021-02-04","MEAN_ELEMENT_THEORY":"SGP4","MEAN_MOTION_DOT":"0.00001147","OBJECT_ID":"2021-009Y","MEAN_MOTION_DDOT":"0.0000000000000","CENTER_NAME":"EARTH","APOAPSIS":"548.350","OBJECT_NAME":"STARLINK-1969","PERIAPSIS":"546.109","MEAN_ANOMALY":"243.3198","MEAN_MOTION":"15.06394923","NORAD_CAT_ID":"47570","FILE":"3629797","REF_FRAME":"TEME","EPOCH":"2022-10-22T19:44:23.109216","REV_AT_EPOCH":"9510","RCS_SIZE":"LARGE","COUNTRY_CODE":"US","GP_ID":"215924671","OBJECT_TYPE":"PAYLOAD","DECAY_DATE":null,"SITE":"AFETR","RA_OF_ASC_NODE":"140.6608","TIME_SYSTEM":"UTC","ECCENTRICITY":"0.00016180","CLASSIFICATION_TYPE":"U","TLE_LINE2":"2 47570  53.0542 140.6608 0001618 116.7956 243.3198 15.06394923 95107","BSTAR":"0.00009589000000"},{"MEAN_MOTION_DDOT":"0.0000000000000","MEAN_MOTION_DOT":"-0.00000834","OBJECT_ID":"2021-009Z","MEAN_ELEMENT_THEORY":"SGP4","INCLINATION":"53.0544","LAUNCH_DATE":"2021-02-04","ARG_OF_PERICENTER":"105.1954","PERIOD":"95.593","EPHEMERIS_TYPE":"0","SEMIMAJOR_AXIS":"6925.389","ELEMENT_SET_NO":"999","TLE_LINE1":"1 47571U 21009Z   22295.89897431 -.00000834  00000-0 -37136-4 0  9996","BSTAR":"-0.00003713600000","TLE_LINE2":"2 47571  53.0544 150.3280 0001301 105.1954 254.9178 15.06386852 94975","TIME_SYSTEM":"UTC","RA_OF_ASC_NODE":"150.3280","CLASSIFICATION_TYPE":"U","ECCENTRICITY":"0.00013010","GP_ID":"215924421","COUNTRY_CODE":"US","DECAY_DATE":null,"OBJECT_TYPE":"PAYLOAD","SITE":"AFETR","EPOCH":"2022-10-22T21:34:31.380384","RCS_SIZE":"LARGE","REV_AT_EPOCH":"9497","REF_FRAME":"TEME","MEAN_MOTION":"15.06386852","MEAN_ANOMALY":"254.9178","PERIAPSIS":"546.353","OBJECT_NAME":"STARLINK-1970","FILE":"3629797","NORAD_CAT_ID":"47571","CENTER_NAME":"EARTH","APOAPSIS":"548.155"},{"MEAN_MOTION_DDOT":"0.0000000000000","MEAN_ELEMENT_THEORY":"SGP4","MEAN_MOTION_DOT":"0.00001730","OBJECT_ID":"2021-009AA","INCLINATION":"53.0542","ARG_OF_PERICENTER":"107.8607","LAUNCH_DATE":"2021-02-04","SEMIMAJOR_AXIS":"6925.330","ELEMENT_SET_NO":"999","TLE_LINE1":"1 47572U 21009AA  22295.88053461  .00001730  00000-0  13498-3 0  9991","PERIOD":"95.592","EPHEMERIS_TYPE":"0","RA_OF_ASC_NODE":"150.4102","TIME_SYSTEM":"UTC","ECCENTRICITY":"0.00012820","CLASSIFICATION_TYPE":"U","TLE_LINE2":"2 47572  53.0542 150.4102 0001282 107.8607 252.2522 15.06406004 94976","BSTAR":"0.00013498000000","EPOCH":"2022-10-22T21:07:58.190304","REV_AT_EPOCH":"9497","RCS_SIZE":"LARGE","GP_ID":"215925673","COUNTRY_CODE":"US","OBJECT_TYPE":"PAYLOAD","DECAY_DATE":null,"SITE":"AFETR","OBJECT_NAME":"STARLINK-1971","PERIAPSIS":"546.307","MEAN_ANOMALY":"252.2522","MEAN_MOTION":"15.06406004","NORAD_CAT_ID":"47572","FILE":"3629797","REF_FRAME":"TEME","APOAPSIS":"548.083","CENTER_NAME":"EARTH"},{"EPHEMERIS_TYPE":"0","PERIOD":"95.592","ELEMENT_SET_NO":"999","TLE_LINE1":"1 47573U 21009AB  22295.85841382  .00001071  00000-0  90774-4 0  9997","SEMIMAJOR_AXIS":"6925.334","LAUNCH_DATE":"2021-02-04","ARG_OF_PERICENTER":"112.8162","INCLINATION":"53.0529","MEAN_MOTION_DOT":"0.00001071","OBJECT_ID":"2021-009AB","MEAN_ELEMENT_THEORY":"SGP4","MEAN_MOTION_DDOT":"0.0000000000000","CENTER_NAME":"EARTH","APOAPSIS":"548.066","REF_FRAME":"TEME","FILE":"3629797","NORAD_CAT_ID":"47573","MEAN_ANOMALY":"247.2959","MEAN_MOTION":"15.06404842","PERIAPSIS":"546.332","OBJECT_NAME":"STARLINK-1975","DECAY_DATE":null,"OBJECT_TYPE":"PAYLOAD","SITE":"AFETR","GP_ID":"215925423","COUNTRY_CODE":"US","REV_AT_EPOCH":"9496","RCS_SIZE":"LARGE","EPOCH":"2022-10-22T20:36:06.954048","BSTAR":"0.00009077400000","TLE_LINE2":"2 47573  53.0529 150.5002 0001252 112.8162 247.2959 15.06404842 94966","CLASSIFICATION_TYPE":"U","ECCENTRICITY":"0.00012520","RA_OF_ASC_NODE":"150.5002","TIME_SYSTEM":"UTC"},{"EPOCH":"2022-10-22T20:58:41.177280","RCS_SIZE":"LARGE","REV_AT_EPOCH":"9454","GP_ID":"215924171","COUNTRY_CODE":"US","OBJECT_TYPE":"PAYLOAD","DECAY_DATE":null,"SITE":"AFETR","RA_OF_ASC_NODE":"180.4350","TIME_SYSTEM":"UTC","ECCENTRICITY":"0.00015220","CLASSIFICATION_TYPE":"U","TLE_LINE2":"2 47574  53.0541 180.4350 0001522 109.2414 250.8739 15.06406026 94545","BSTAR":"0.00011577000000","CENTER_NAME":"EARTH","APOAPSIS":"548.249","OBJECT_NAME":"STARLINK-1976","PERIAPSIS":"546.141","MEAN_MOTION":"15.06406026","MEAN_ANOMALY":"250.8739","NORAD_CAT_ID":"47574","FILE":"3629797","REF_FRAME":"TEME","MEAN_ELEMENT_THEORY":"SGP4","OBJECT_ID":"2021-009AC","MEAN_MOTION_DOT":"0.00001444","MEAN_MOTION_DDOT":"0.0000000000000","SEMIMAJOR_AXIS":"6925.330","ELEMENT_SET_NO":"999","TLE_LINE1":"1 47574U 21009AC  22295.87408770  .00001444  00000-0  11577-3 0  9997","PERIOD":"95.592","EPHEMERIS_TYPE":"0","INCLINATION":"53.0541","ARG_OF_PERICENTER":"109.2414","LAUNCH_DATE":"2021-02-04"}];
